YUBILEINY (RS30)        
1 32953U 08025A   26108.78609698 -.00000001  00000+0 -80812-4 0  9992
2 32953  82.5078  32.3829 0020622  80.5007 279.8402 12.43177425812316
KKS-1 (KISEKI)          
1 33499U 09002H   26108.81567044  .00000951  00000+0  12394-3 0  9997
2 33499  98.1190  30.3259 0009114 117.6312 242.5827 14.82966697927394
SWISSCUBE               
1 35932U 09051B   26107.68517475  .00000660  00000+0  14040-3 0  9999
2 35932  98.4071  14.5155 0007832  48.0021 312.1846 14.62360808880312
BEESAT-1                
1 35933U 09051C   26108.62192169  .00000598  00000+0  13020-3 0  9991
2 35933  98.3998  15.2275 0006436  59.0214 301.1618 14.61619654880484
ITUPSAT1                
1 35935U 09051E   26108.56083245  .00000578  00000+0  12965-3 0  9995
2 35935  98.4085  14.4198 0008719  67.0056 293.2063 14.60347710880034
XIWANG-1 (HOPE-1)       
1 36122U 09072B   26108.81257179 -.00000231  00000+0 -48863-3 0  9998
2 36122 100.3982  63.6068 0007758  14.1826 345.9504 13.16437092785193
O/OREOS (USA 219)       
1 37224U 10062C   26108.58799999  .00001537  00000+0  15166-3 0  9996
2 37224  71.9704 215.3109 0014815 187.7893 172.3050 14.93500611107748
JUGNU                   
1 37839U 11058B   26108.88420394  .00000401  00000+0  69966-4 0  9994
2 37839  19.9619 308.7115 0018586 141.5286   1.7380 14.13757964750623
SRMSAT                  
1 37841U 11058D   26108.57677583  .00000364  00000+0  53580-4 0  9990
2 37841  19.9725  60.2744 0011586 267.7683 248.5244 14.11561078749385
STRAND-1                
1 39090U 13009E   26108.45905739  .00000185  00000+0  76579-4 0  9994
2 39090  98.3910 290.1667 0009581  54.8168 305.3915 14.37127028688484
ZACUBE-1 (TSHEPISOSAT)  
1 39417U 13066B   26108.34129563  .00002988  00000+0  23601-3 0  9991
2 39417  97.8133  70.3598 0044814  92.1093 268.5263 15.00683183671757
GOMX-1                  
1 39430U 13066Q   26108.80304990  .00000757  00000+0  12154-3 0  9999
2 39430  97.6528 313.0036 0127520 268.3172  90.3425 14.69238441661198
CUBEBUG-2 (LO-74)       
1 39440U 13066AA  26108.57000534  .00001901  00000+0  18147-3 0  9991
2 39440  97.8867  57.3342 0056806 224.0248 135.6441 14.93349273668096
FUNCUBE-1 (AO-73)       
1 39444U 13066AE  26108.84437715  .00007193  00000+0  45596-3 0  9997
2 39444  97.8248  79.1041 0038478  47.9387 312.5103 15.08630370670713
UWE-3                   
1 39446U 13066AG  26108.85127889  .00002110  00000+0  18630-3 0  9991
2 39446  97.8662  64.5682 0049810 155.7852 204.5726 14.96546364668703
UNISAT-6                
1 40012U 14033C   26107.88351347  .00001845  00000+0  20426-3 0  9997
2 40012  97.7802 261.6974 0043956 267.0190  92.5996 14.87888887637192
DUCHIFAT-1              
1 40021U 14033M   26108.59743065  .00060319  00000+0  89589-3 0  9994
2 40021  98.0544 159.8855 0003273 265.5194  94.5684 15.54994667646465
QB50P1                  
1 40025U 14033R   26108.74982708  .00007654  00000+0  38714-3 0  9991
2 40025  98.0994 115.7680 0010624  73.9226 286.3175 15.17307519644018
LILACSAT-2              
1 40908U 15049K   26108.83081764  .00016906  00000+0  30832-3 0  9994
2 40908  97.4733 143.4779 0008908 106.6533 253.5696 15.49477339586557
FOX-1A (AO-85)          
1 40967U 15058D   26108.71590116  .00001939  00000+0  18447-3 0  9990
2 40967  64.7728 103.7479 0128443  79.9217 281.6357 14.90599505104701
CAS-2T & KS-1Q          
1 41847U 16066G   26108.46530642  .00000390  00000+0  64974-4 0  9995
2 41847  98.3838 184.8737 0341264 310.9100  46.2992 14.44557532496176
RADFXSAT (FOX-1B)       
1 43017U 17073E   26108.58678086  .00007916  00000+0  35271-3 0  9991
2 43017  97.4784 337.0476 0153669 173.7182 186.6025 15.11634097456386
DIWATA-2B               
1 43678U 18084H   26108.81186722  .00001402  00000+0  11736-3 0  9998
2 43678  98.1044 302.5018 0013740  10.1571 349.9926 15.00157448407317
ES'HAIL 2               
1 43700U 18090A   26108.84142181  .00000148  00000+0  00000+0 0  9999
2 43700   0.0181 242.6424 0001031 156.0368 136.9569  1.00270457 27086
FOX-1CLIFF (AO-95)      
1 43770U 18099N   26108.40788862  .00007632  00000+0  30471-3 0  9993
2 43770  97.4431 168.9202 0008941 188.2447 171.8646 15.25402099404104
ITASAT                  
1 43786U 18099AE  26108.58910578  .00004997  00000+0  24659-3 0  9992
2 43786  97.4088 161.3074 0012538 193.1745 166.9164 15.18279999403861
JY1SAT (JO-97)          
1 43803U 18099AX  26108.16152151  .00010670  00000+0  35038-3 0  9999
2 43803  97.4177 170.8622 0007406 121.6688 238.5277 15.31734332404431
UWE-4                   
1 43880U 18111E   26108.27666980  .00020542  00000+0  47425-3 0  9993
2 43880  97.5865  34.0844 0008800 162.1958 197.9599 15.42532967401532
TIANYAN 01              
1 44881U 19093C   26108.80756889  .00000055  00000+0  12284-4 0  9995
2 44881  97.7557 182.4838 0012166 284.5509  75.4357 14.86418753342591
RS-44 & BREEZE-KM R/B   
1 44909U 19096E   26108.19661946  .00000020  00000+0  42142-4 0  9998
2 44909  82.5264  19.5675 0216411 284.7686  72.9527 12.79747881294678
SALSAT                  
1 46495U 20068K   26108.73587294  .00006734  00000+0  24236-3 0  9995
2 46495  97.8864 108.2239 0011020 142.9262 217.2739 15.28906550306277
XW-3 (CAS-9)            
1 50466U 21131B   26108.83880912  .00000325  00000+0  11432-3 0  9998
2 50466  98.4954 201.5606 0002847 278.5957  81.4909 14.41298407226568
GREENCUBE (IO-117)      
1 53109U 22080E   26106.55228240 -.00000003  00000+0  00000+0 0  9995
2 53109  70.1493 319.6911 0008887 303.6327  56.3485  6.42583340 88102
UMKA 1 (RS40S)          
1 57172U 23091G   26108.86376682  .00004666  00000+0  21861-3 0  9992
2 57172  97.5099 167.8040 0011887 333.0086  27.0529 15.20144909154995
CUBESX-HSE 3 (RS42S)    
1 57178U 23091N   26108.87181928  .00010670  00000+0  37251-3 0  9998
2 57178  97.5133 173.7660 0009451 305.5259  54.5099 15.29735567155357
MONITOR-3 (RS58S)       
1 57180U 23091Q   26108.83697622  .00009062  00000+0  34772-3 0  9998
2 57180  97.5126 171.8885 0010439 313.1860  46.8506 15.26661560155233
MONITOR-4 (RS57S)       
1 57182U 23091S   26108.81973402  .00008080  00000+0  30952-3 0  9996
2 57182  97.5122 171.8386 0010428 313.6455  46.3918 15.26755318155237
MONITOR-2 (RS39S)       
1 57184U 23091U   26108.81310964  .00003601  00000+0  17844-3 0  9995
2 57184  97.5123 167.4885 0010177 325.9408  34.1172 15.18361348154941
SVYATOBOR 1 (RS60S)     
1 57187U 23091X   26108.85059236  .00007460  00000+0  29619-3 0  9994
2 57187  97.5133 172.3723 0008007 305.3329  54.7159 15.25607431155267
VIZARD-METEO (RS38S)    
1 57189U 23091Z   26108.82805065  .00014150  00000+0  42999-3 0  9992
2 57189  97.5128 177.2008 0005907 280.2302  79.8274 15.34156771155588
NANOZOND 1 (RS49S)      
1 57190U 23091AA  26108.85088069  .03989643  24994-5  17538-2 0  9999
2 57190  97.4838 193.2297 0013374 265.5547  94.4214 16.22224374156658
POLYTECH-UNIVERSE 3 (R*)
1 57191U 23091AB  26108.84806262  .00004257  00000+0  20886-3 0  9995
2 57191  97.5097 167.0288 0014851 341.7327  18.3372 15.18557031154943
UTMN 2 (RS27S)          
1 57203U 23091AP  26108.85723133  .00010999  00000+0  37405-3 0  9990
2 57203  97.5125 175.3118 0006612 290.5165  69.5365 15.30602037155469
KUZGTU 1 (RS47S)        
1 57217U 23091AV  26108.81313608  .00009524  00000+0  34548-3 0  9990
2 57217  97.5107 172.7382 0009672 309.9698  50.0691 15.28512942155305
SONATE-2                
1 59112U 24043Q   26108.15773938  .00027154  00000+0  41339-3 0  9992
2 59112  97.5467 255.1015 0007189  68.1083 292.0934 15.54463024118551
MESAT1                  
1 60209U 24125G   26108.71254807  .00051416  00000+0  69853-3 0  9992
2 60209  97.2379 325.0815 0012404  81.8999 278.3663 15.57367800100294
OOV-CUBE (TUBSAT-30)    
1 60240U 24128F   26108.63003272  .00001573  00000+0  13065-3 0  9992
2 60240  61.9938  73.1973 0051198 120.7207 239.8942 15.02475288 97165
COLIBRI-S (RS67S)       
1 61746U 24199M   26108.85555042  .00019875  00000+0  41834-3 0  9992
2 61746  97.3079 342.2527 0010540 129.3172 230.9013 15.45263134128240
HORS 3 (RS81S)          
1 61753U 24199U   26108.80746741  .00031294  00000+0  53746-3 0  9997
2 61753  97.3056 343.6205 0008882 131.0018 229.2004 15.51055160128343
HORS 4 (RS82S)          
1 61754U 24199V   26108.85817606  .00038881  00000+0  58817-3 0  9995
2 61754  97.3020 344.5457 0008237 126.6949 233.5063 15.54555653128417
HORIZON (RS59S)         
1 61757U 24199Y   26108.77555573  .00321078  00000+0  12700-2 0  9994
2 61757  97.2940 349.7807 0006542 122.9130 237.2771 15.85950732128748
ARCTICSAT 1 (RS74S)     
1 61762U 24199AD  26108.83421153  .00163877  00000+0  10507-2 0  9997
2 61762  97.2981 348.9570 0007085 112.5853 247.6163 15.75767040128698
SIT-2086                
1 61764U 24199AF  26108.84640537  .00021199  00000+0  38377-3 0  9995
2 61764  97.3046 344.3212 0008177 119.8681 240.3384 15.49644257125235
HYPERVIEW 1G (RS66S)    
1 61772U 24199AP  26108.82133324  .00079702  00000+0  84017-3 0  9998
2 61772  97.2993 346.0992 0009431 126.6054 233.6074 15.63945825125368
ALTAIR (RS65S)          
1 61779U 24199AW  26108.84581269  .00007082  00000+0  20442-3 0  9996
2 61779  97.3108 338.6116 0013990 152.6229 207.5755 15.35894773128001
ASRTU-1 (AO-123)        
1 61781U 24199AY  26108.85181853  .00007061  00000+0  21101-3 0  9995
2 61781  97.3081 338.0689 0014831 155.4051 204.7903 15.34789952124823
TUSUR GO (RS78S)        
1 61782U 24199AZ  26108.74333139  .00418244  67244-4  14192-2 0  9998
2 61782  97.2872 348.8389 0007097 134.7051 225.4801 15.89824470125545
SAMSAT-IONOSPHERE (RS7*)
1 61784U 24199BB  26108.85897296  .00037027  00000+0  59712-3 0  9997
2 61784  97.3042 343.5471 0011214 133.8132 226.4050 15.52760812128344
RTU MIREA 1 (RS51S)     
1 61785U 24199BC  26108.80066141  .00044673  00000+0  65903-3 0  9994
2 61785  97.3033 344.0648 0011351 131.4406 228.7826 15.55179524125224
